id,createdAt,name,avatar,city,country,zipCode,street,email,phone,women
1,2021-04-30T12:57:04.071Z,Blair Effertz DDS,https://s3.amazonaws.com/uifaces/faces/twitter/akmalfikri/128.jpg,Hansenland,Peru,95087-7156,7824 Kozey Valleys,Bart92@yahoo.com,250.866.3055 x47206,true
2,2021-04-30T14:52:08.239Z,Miss Keenan Miller,https://s3.amazonaws.com/uifaces/faces/twitter/tjisousa/128.jpg,South Destini,Argentina,04045,269 Maye Crest,Jackson_Flatley@hotmail.com,210.088.2480,true
3,2021-05-01T09:23:21.212Z,Dane Bernier,https://s3.amazonaws.com/uifaces/faces/twitter/incubo82/128.jpg,Port Henrytown,Gambia,75660-0273,998 Jevon Cliffs,Braeden_Rutherford67@gmail.com,324-118-5150 x15552,false
4,2021-04-30T21:05:22.476Z,Mose Volkman IV,https://s3.amazonaws.com/uifaces/faces/twitter/kerem/128.jpg,South Lessieton,Ireland,52428-9085,8474 Schroeder Mount,Parker38@gmail.com,559-846-8703,true
5,2021-04-30T10:07:02.507Z,Guy Bednar,https://s3.amazonaws.com/uifaces/faces/twitter/traneblow/128.jpg,Millsmouth,Nigeria,81562,6113 Kip Fields,Tremaine.Hilll@yahoo.com,1-628-436-4101 x41446,false
6,2021-05-01T03:50:03.786Z,Mr. Edwardo Schulist,https://s3.amazonaws.com/uifaces/faces/twitter/xiel/128.jpg,Gabriellestad,Chad,49695-1592,48701 Wilton Lock,Oran.Orn@hotmail.com,993.749.0521 x138,false
7,2021-05-01T09:00:12.366Z,Marlene Kulas,https://s3.amazonaws.com/uifaces/faces/twitter/alxleroydeval/128.jpg,East Dandrefurt,Kuwait,70719-0989,982 Torp Locks,Amelie15@yahoo.com,815.927.1212,false
8,2021-05-01T04:07:28.523Z,Magnus Boehm,https://s3.amazonaws.com/uifaces/faces/twitter/besbujupi/128.jpg,West Clovisborough,Oman,95404-6683,5560 Willms Drive,Danielle_Bosco53@yahoo.com,807.052.5073 x845,false
9,2021-05-01T09:24:19.905Z,Flavie Carroll,https://s3.amazonaws.com/uifaces/faces/twitter/msveet/128.jpg,Carterborough,Germany,13996-6361,67835 Albin Flats,Hazle_Schaden45@hotmail.com,1-280-254-8648,true
10,2021-05-01T10:03:26.514Z,Ms. Ardella Moen,https://s3.amazonaws.com/uifaces/faces/twitter/cocolero/128.jpg,Lake Ernestinaton,Svalbard & Jan Mayen Islands,06533,2320 Corkery Plaza,Harvey_Feeney45@yahoo.com,765-556-2015 x08947,true
11,2021-04-30T14:09:09.857Z,Ms. Jaquelin Breitenberg,https://s3.amazonaws.com/uifaces/faces/twitter/itsajimithing/128.jpg,Laurafurt,Somalia,69948,003 Allie Turnpike,Addie.Lebsack67@yahoo.com,1-518-563-0523,true
12,2021-05-01T08:12:00.377Z,Sherwood Cole,https://s3.amazonaws.com/uifaces/faces/twitter/stevedesigner/128.jpg,Haleighview,Fiji,36700-6823,12815 Kerluke Rapid,Chad.Harber87@hotmail.com,(309) 677-1149,false
13,2021-05-01T09:50:38.836Z,Camylle Douglas,https://s3.amazonaws.com/uifaces/faces/twitter/jacksonlatka/128.jpg,Vonport,France,38468,5219 Brionna Center,Jefferey36@hotmail.com,261-829-2070 x25111,false
14,2021-04-30T15:52:47.029Z,Alford Runte,https://s3.amazonaws.com/uifaces/faces/twitter/marcoramires/128.jpg,New Bryana,Taiwan,73229-8794,102 Lakin Landing,Lolita82@gmail.com,(466) 136-2760 x296,false
15,2021-04-30T13:17:11.994Z,Ms. Luis Aufderhar,https://s3.amazonaws.com/uifaces/faces/twitter/koridhandy/128.jpg,Friesenburgh,Iran,73376,835 Hershel Valleys,Michale_Schimmel32@gmail.com,688-975-7977,true
16,2021-04-30T19:46:24.488Z,Ola Kreiger,https://s3.amazonaws.com/uifaces/faces/twitter/al_li/128.jpg,Dominicstad,Turkmenistan,28672-6190,18557 Wade Islands,Eldred.Kuphal11@yahoo.com,345.904.8419,false
17,2021-04-30T13:07:07.559Z,Vicky Emard,https://s3.amazonaws.com/uifaces/faces/twitter/nbirckel/128.jpg,Scarletttown,Jamaica,27263-5309,85157 Blick Isle,Celestino_Mueller18@yahoo.com,617-789-1318 x1930,true
18,2021-05-01T04:20:29.602Z,Emmie Bins,https://s3.amazonaws.com/uifaces/faces/twitter/embrcecreations/128.jpg,Lake Roderick,Kiribati,05561,0113 Carole Mountain,Selina_Nolan@hotmail.com,(109) 131-8695 x45682,true
19,2021-05-01T04:23:54.524Z,Terrill Waelchi IV,https://s3.amazonaws.com/uifaces/faces/twitter/rickyyean/128.jpg,New Domenicburgh,Guyana,58311-0541,8811 Schaden Field,Nolan75@yahoo.com,561-623-7668 x1540,false
20,2021-04-30T23:07:16.911Z,Sally Kiehn,https://s3.amazonaws.com/uifaces/faces/twitter/el_fuertisimo/128.jpg,West Leemouth,Falkland Islands (Malvinas),79891,3006 Koelpin Vista,Jackeline_Funk32@hotmail.com,(726) 307-5261,true
21,2021-04-30T17:01:26.386Z,Taryn Turcotte,https://s3.amazonaws.com/uifaces/faces/twitter/ipavelek/128.jpg,New Wileychester,Cote d'Ivoire,12892,810 Berge Lodge,Vilma.Pfeffer@hotmail.com,(555) 999-4162,true
22,2021-04-30T17:58:56.664Z,Monique Buckridge,https://s3.amazonaws.com/uifaces/faces/twitter/mds/128.jpg,North Mekhi,United Arab Emirates,32937-7443,592 Ayden Hollow,Dulce79@yahoo.com,988.757.2522,false
23,2021-05-01T04:02:24.177Z,Kira Wisozk,https://s3.amazonaws.com/uifaces/faces/twitter/orkuncaylar/128.jpg,Lake Carley,Liechtenstein,77838,4489 Armstrong Mill,Frank_Lindgren80@gmail.com,1-867-078-4711,true
24,2021-04-30T20:15:35.818Z,Devyn Gleason,https://s3.amazonaws.com/uifaces/faces/twitter/cdharrison/128.jpg,East Karliefurt,San Marino,14496,3185 Casimir Port,Betty_Shanahan@gmail.com,1-428-830-9208,false
25,2021-04-30T15:09:11.747Z,Leilani Barrows,https://s3.amazonaws.com/uifaces/faces/twitter/beweinreich/128.jpg,Port Marcellusshire,Dominican Republic,66821,2856 Fay Trafficway,Darius50@yahoo.com,458-746-2023 x9180,true
26,2021-05-01T09:46:01.944Z,Forrest Krajcik,https://s3.amazonaws.com/uifaces/faces/twitter/kimcool/128.jpg,Jastshire,France,80297,396 Bailey Streets,Clare.Schoen@yahoo.com,209-413-5777,false
27,2021-05-01T02:27:59.056Z,Jackson Langworth,https://s3.amazonaws.com/uifaces/faces/twitter/abelcabans/128.jpg,New Virgilberg,Eritrea,65066,304 Cole Points,Fleta_Larkin56@gmail.com,(682) 940-4581 x542,false
28,2021-05-01T09:25:44.831Z,Kallie Thompson,https://s3.amazonaws.com/uifaces/faces/twitter/kazaky999/128.jpg,Zacharyton,Antarctica (the territory South of 60 deg S),43743-0841,36072 Treutel Garden,Kaylin.Kling74@hotmail.com,(913) 399-2878 x196,false
29,2021-05-01T03:24:50.406Z,Ryleigh Morissette,https://s3.amazonaws.com/uifaces/faces/twitter/smalonso/128.jpg,Zulaufmouth,New Caledonia,51125,82606 Lou Burg,Ezequiel_Johnston49@hotmail.com,302.573.2921 x878,false
30,2021-05-01T01:07:31.056Z,Elmore Bashirian,https://s3.amazonaws.com/uifaces/faces/twitter/9lessons/128.jpg,West Esmeralda,France,34384,6618 Koelpin Mountain,Zack.McKenzie@yahoo.com,062-347-0363 x9535,false
31,2021-04-30T23:19:41.735Z,Kaleigh Bashirian,https://s3.amazonaws.com/uifaces/faces/twitter/anoff/128.jpg,Johanville,Brazil,97369-4065,600 Charlotte Street,Edna_Barton@hotmail.com,883-961-4230 x7522,true
32,2021-04-30T13:06:34.804Z,Kenneth Goodwin,https://s3.amazonaws.com/uifaces/faces/twitter/shesgared/128.jpg,South Allen,Italy,41136,1431 Emard Route,Jose_Halvorson@hotmail.com,184-998-2685,true
33,2021-05-01T06:09:26.500Z,Lela Runolfsson,https://s3.amazonaws.com/uifaces/faces/twitter/desastrozo/128.jpg,Casandrachester,Reunion,61926-0969,109 Brown Circle,Brycen_Rau@yahoo.com,1-786-136-1751,false
34,2021-04-30T15:37:52.693Z,Enos Mertz Sr.,https://s3.amazonaws.com/uifaces/faces/twitter/chanpory/128.jpg,Boyershire,Liechtenstein,08131-2706,7524 Wilkinson Lock,Providenci72@hotmail.com,666.904.0613,true
35,2021-04-30T18:57:14.424Z,Elijah Collins,https://s3.amazonaws.com/uifaces/faces/twitter/heyimjuani/128.jpg,South Roma,Nauru,05647-7703,856 Roberts Loop,Cecelia.Yost@hotmail.com,315.343.0422 x3678,true
36,2021-04-30T10:47:04.040Z,Rowan Jacobi,https://s3.amazonaws.com/uifaces/faces/twitter/joetruesdell/128.jpg,Rohanhaven,Swaziland,03442,81156 Wiza Oval,Kay72@yahoo.com,1-328-834-8358 x297,false
37,2021-05-01T00:09:51.802Z,Elvie Grady I,https://s3.amazonaws.com/uifaces/faces/twitter/stefooo/128.jpg,Morarbury,Taiwan,49419,1780 Emmerich Walks,Ova.Gerhold@yahoo.com,939.894.8745 x6368,false
38,2021-05-01T04:02:49.406Z,Garry Zieme,https://s3.amazonaws.com/uifaces/faces/twitter/91bilal/128.jpg,Binsfurt,Lebanon,14690,94854 Alexie Views,Dejon21@hotmail.com,1-960-184-9489,true
39,2021-04-30T21:48:11.412Z,Niko Schoen,https://s3.amazonaws.com/uifaces/faces/twitter/thedamianhdez/128.jpg,Groverville,French Polynesia,21330-5443,7855 Leuschke Lights,Alfonzo_Auer@gmail.com,720.071.2981 x384,false
40,2021-04-30T19:42:36.775Z,Imani Schimmel,https://s3.amazonaws.com/uifaces/faces/twitter/slowspock/128.jpg,Ritchiefort,Zimbabwe,72464,578 Bernie Trace,Edythe.Goodwin53@hotmail.com,(579) 779-0239 x5304,false
41,2021-04-30T20:14:09.015Z,Izabella Watsica,https://s3.amazonaws.com/uifaces/faces/twitter/dss49/128.jpg,Carashire,Dominican Republic,56634-8057,49055 Keaton River,Kaylin.Shanahan@hotmail.com,821.631.6882 x67220,true
42,2021-05-01T02:37:27.550Z,Arvid Kshlerin,https://s3.amazonaws.com/uifaces/faces/twitter/jayphen/128.jpg,Walterberg,New Zealand,66400,615 Wintheiser Route,Steve_Auer32@gmail.com,015-201-4049 x12139,false
43,2021-05-01T01:21:36.214Z,Oceane Kunde,https://s3.amazonaws.com/uifaces/faces/twitter/tonymillion/128.jpg,Kleinview,Bosnia and Herzegovina,23753-0232,176 Dell Shore,Pattie65@hotmail.com,081-468-8971,false
44,2021-05-01T00:09:49.408Z,Jorge MacGyver,https://s3.amazonaws.com/uifaces/faces/twitter/anaami/128.jpg,Nikitaside,Christmas Island,08874,761 Upton Mill,Terence_Boehm78@yahoo.com,634.364.8479 x6241,true
45,2021-04-30T23:28:27.564Z,Jeremie Turner DVM,https://s3.amazonaws.com/uifaces/faces/twitter/larrygerard/128.jpg,West Flossie,Japan,67627,33262 Okuneva Bridge,Jaron_White@gmail.com,1-579-446-1651,false
46,2021-04-30T21:35:32.619Z,Columbus Quigley,https://s3.amazonaws.com/uifaces/faces/twitter/VinThomas/128.jpg,South Daleport,Portugal,09290-5854,26488 Friesen Island,Alexandrine.Rogahn55@hotmail.com,302-144-3160 x402,true
47,2021-05-01T06:21:38.527Z,Loyce Cremin,https://s3.amazonaws.com/uifaces/faces/twitter/prrstn/128.jpg,Schneidershire,United Arab Emirates,44223,54911 Connor Roads,Jalon.Mayert88@gmail.com,1-240-336-9687 x827,true
48,2021-04-30T14:51:19.172Z,Jamison Steuber,https://s3.amazonaws.com/uifaces/faces/twitter/gu5taf/128.jpg,South Vicky,Northern Mariana Islands,98797-5049,426 Schmeler Junction,Bertrand92@yahoo.com,1-068-941-6955,true
49,2021-05-01T05:58:29.322Z,Miss Libbie Blanda,https://s3.amazonaws.com/uifaces/faces/twitter/zauerkraut/128.jpg,West Freddy,"Virgin Islands, U.S.",31988-8546,79250 Muller Causeway,Malinda_Hansen@yahoo.com,(960) 108-9434 x468,false
50,2021-04-30T14:42:48.336Z,Darius Jakubowski,https://s3.amazonaws.com/uifaces/faces/twitter/geobikas/128.jpg,Allisonland,Lebanon,37116,82252 Herminia Passage,Cleve.Bosco@gmail.com,469.999.9440 x883,true
51,2021-04-30T12:12:17.867Z,Summer Steuber MD,https://s3.amazonaws.com/uifaces/faces/twitter/kinday/128.jpg,Goldnerbury,Cuba,47043,45144 Volkman Port,Lukas24@gmail.com,(262) 109-2848,false
52,2021-05-01T04:15:40.829Z,Lilla Terry,https://s3.amazonaws.com/uifaces/faces/twitter/brunodesign1206/128.jpg,New Natshire,Lesotho,07092,025 Garnet Roads,Brycen_Jenkins@yahoo.com,217.991.5160 x02784,true
53,2021-04-30T18:12:03.959Z,Ansley Torp,https://s3.amazonaws.com/uifaces/faces/twitter/davidmerrique/128.jpg,Kenyonshire,India,64180,1453 Lamar Walk,Ulices_Nikolaus28@hotmail.com,1-530-815-3406,true
54,2021-04-30T21:33:20.610Z,Mertie Bode,https://s3.amazonaws.com/uifaces/faces/twitter/romanbulah/128.jpg,Port Hortenseview,Burkina Faso,37711,8462 Bosco Loaf,Isidro_Bruen56@hotmail.com,(698) 382-2394 x940,true
55,2021-04-30T22:10:56.523Z,Tara Bartell,https://s3.amazonaws.com/uifaces/faces/twitter/AlbertoCococi/128.jpg,Macejkovicborough,Afghanistan,73975,854 Minnie Land,Mariano74@gmail.com,1-620-419-4162 x209,true
56,2021-04-30T11:22:06.054Z,Dillan Farrell,https://s3.amazonaws.com/uifaces/faces/twitter/vikashpathak18/128.jpg,Hahnburgh,Albania,15275-3951,18460 Daniel Wall,Juliana.Lubowitz12@hotmail.com,336-008-1580 x6806,true
57,2021-04-30T20:47:54.406Z,Zane Dicki,https://s3.amazonaws.com/uifaces/faces/twitter/davidmerrique/128.jpg,Port Leathachester,Netherlands Antilles,84435-0256,153 Angelica Inlet,Alexandra4@gmail.com,999-127-1009 x5761,true
58,2021-04-30T16:25:06.857Z,Melissa Goldner,https://s3.amazonaws.com/uifaces/faces/twitter/kamal_chaneman/128.jpg,Tevinbury,Saint Helena,31137,6255 Corkery Village,Devan14@hotmail.com,1-751-264-1126 x53836,true
59,2021-05-01T06:41:33.705Z,Darrion Stroman I,https://s3.amazonaws.com/uifaces/faces/twitter/iamglimy/128.jpg,South Nicola,Malta,00322,35542 Elenora Circles,Tracey_Franecki@yahoo.com,890.926.0910,true
60,2021-05-01T02:08:33.987Z,Cathrine Erdman,https://s3.amazonaws.com/uifaces/faces/twitter/eyronn/128.jpg,New Sophiaside,Isle of Man,85257,98916 Rhoda Locks,Arvel_Wunsch53@hotmail.com,1-030-381-9967,true
61,2021-04-30T19:55:27.232Z,Aurore Robel,https://s3.amazonaws.com/uifaces/faces/twitter/chandlervdw/128.jpg,Claudbury,Sudan,13887,29463 Weimann Knolls,Summer_Sporer@yahoo.com,1-767-679-3139 x11418,true
62,2021-04-30T14:35:21.068Z,Cody Baumbach,https://s3.amazonaws.com/uifaces/faces/twitter/panchajanyag/128.jpg,Gerryburgh,Panama,70335-0066,2462 Nikko Port,Kaela84@yahoo.com,291.499.1416 x2870,false
63,2021-04-30T14:52:33.466Z,Nichole Swaniawski,https://s3.amazonaws.com/uifaces/faces/twitter/iamgarth/128.jpg,West Emileport,Antarctica (the territory South of 60 deg S),38212,5858 Lubowitz Light,Aaliyah_Rodriguez@gmail.com,352-490-3482,true
64,2021-04-30T21:28:00.861Z,Gaetano Bergnaum II,https://s3.amazonaws.com/uifaces/faces/twitter/thiagovernetti/128.jpg,Albertbury,Lithuania,05140,425 Aracely Plains,Amara91@yahoo.com,(528) 280-3489,true
65,2021-05-01T06:49:37.590Z,Bonita Jones,https://s3.amazonaws.com/uifaces/faces/twitter/sawrb/128.jpg,North Caleb,Grenada,65690-2355,385 Crist Village,Demond_Kessler@yahoo.com,1-526-716-9066 x62623,true
66,2021-05-01T02:01:54.633Z,Armando Turcotte,https://s3.amazonaws.com/uifaces/faces/twitter/sydlawrence/128.jpg,Lake Lenna,Cocos (Keeling) Islands,33509,827 Lura Terrace,Emile_Morar@yahoo.com,1-745-620-0457 x911,true
67,2021-04-30T18:50:58.612Z,Mrs. Christian Moen,https://s3.amazonaws.com/uifaces/faces/twitter/melvindidit/128.jpg,East Telly,Maldives,02736,42895 Medhurst Village,Jamie.Littel@yahoo.com,499-701-8905,false
68,2021-04-30T23:12:46.336Z,Delta Erdman,https://s3.amazonaws.com/uifaces/faces/twitter/ryankirkman/128.jpg,Lake Isidromouth,China,42714,767 Streich Canyon,Karianne.Larson36@gmail.com,121-867-2990,true
69,2021-05-01T04:25:30.193Z,Mrs. Russ Osinski,https://s3.amazonaws.com/uifaces/faces/twitter/samgrover/128.jpg,New Clare,Turks and Caicos Islands,62579-3913,9493 Donnelly Ranch,Freeman_McCullough30@yahoo.com,1-173-912-9334,true
70,2021-05-01T08:17:40.156Z,Sabina Steuber,https://s3.amazonaws.com/uifaces/faces/twitter/abdots/128.jpg,North Bell,Afghanistan,09653,64650 Thompson Underpass,Larry_Wunsch15@hotmail.com,(687) 796-2441,true
71,2021-05-01T01:34:09.144Z,Bulah Spinka IV,https://s3.amazonaws.com/uifaces/faces/twitter/ralph_lam/128.jpg,Edgardoview,Saint Lucia,45051-6285,24810 Katrina Heights,Alice.OHara@hotmail.com,328-651-3484,false
72,2021-04-30T19:54:09.291Z,Jarod Mitchell,https://s3.amazonaws.com/uifaces/faces/twitter/madshensel/128.jpg,South Pasquale,Cuba,35909-9899,81541 Tristin Center,Hector.OReilly46@hotmail.com,1-839-110-4366 x484,true
73,2021-04-30T18:17:47.419Z,Dean Wunsch I,https://s3.amazonaws.com/uifaces/faces/twitter/reabo101/128.jpg,Port Hortense,Italy,18381,51262 Jenkins Rest,Samir11@gmail.com,(299) 774-0133 x666,false
74,2021-05-01T08:58:46.680Z,Brandon Gaylord,https://s3.amazonaws.com/uifaces/faces/twitter/tumski/128.jpg,Elmoreview,Angola,70231,9370 Gusikowski Union,Kurt67@yahoo.com,967-658-8752 x3516,false
75,2021-04-30T11:00:58.727Z,Casandra Ward,https://s3.amazonaws.com/uifaces/faces/twitter/chandlervdw/128.jpg,Zanderstad,Haiti,31069,64754 Lenny Greens,Parker81@hotmail.com,776-767-2217 x888,true
76,2021-04-30T12:33:25.928Z,Maudie D'Amore,https://s3.amazonaws.com/uifaces/faces/twitter/imsoper/128.jpg,New Dulcemouth,Svalbard & Jan Mayen Islands,24655-3327,61967 Blick Rue,Estel_Parisian@hotmail.com,105-077-2781 x9981,false
77,2021-05-01T07:24:17.570Z,Bryon Wolff,https://s3.amazonaws.com/uifaces/faces/twitter/kennyadr/128.jpg,New Dasia,Cameroon,89652-7802,197 Jewel Ways,Marcus_Okuneva@yahoo.com,381-779-8005 x910,false
78,2021-04-30T20:59:09.343Z,Savannah Casper,https://s3.amazonaws.com/uifaces/faces/twitter/kapaluccio/128.jpg,West Coltenland,Malta,97955-5110,2909 Kitty Via,Arnoldo.Walsh@hotmail.com,649-057-9766 x52067,true
79,2021-04-30T11:37:19.774Z,Miss Franco Breitenberg,https://s3.amazonaws.com/uifaces/faces/twitter/kolmarlopez/128.jpg,West Macitown,Barbados,89398-2845,74259 Rowe Flat,Rickey_Lind55@gmail.com,1-123-770-5959 x789,true
80,2021-04-30T21:21:39.837Z,Tiara Auer,https://s3.amazonaws.com/uifaces/faces/twitter/souuf/128.jpg,Steuberfurt,Maldives,48374,8900 Nigel Court,Noah.Zemlak@yahoo.com,758-677-4990 x101,false
81,2021-04-30T11:04:38.217Z,Edwin Cormier,https://s3.amazonaws.com/uifaces/faces/twitter/andysolomon/128.jpg,North Rashadburgh,Saint Pierre and Miquelon,69819,31306 Jeremy Lodge,Jaleel71@yahoo.com,(321) 362-5074,true
82,2021-04-30T15:51:25.194Z,Dorothea Schmidt,https://s3.amazonaws.com/uifaces/faces/twitter/thimo_cz/128.jpg,North Zack,Norway,79903,6105 Maxie Lodge,Myles.DuBuque@yahoo.com,(532) 786-3210 x3365,false
83,2021-05-01T02:42:46.298Z,Waino Osinski PhD,https://s3.amazonaws.com/uifaces/faces/twitter/umurgdk/128.jpg,West Adelle,Wallis and Futuna,22058-2510,4063 Maxine Lock,Mckayla_Walsh57@yahoo.com,199.749.3358,false
84,2021-05-01T04:00:31.883Z,May Conn,https://s3.amazonaws.com/uifaces/faces/twitter/gearpixels/128.jpg,Port Bellahaven,Malaysia,06151-9837,882 Leannon Junction,Haleigh.Stroman@gmail.com,1-380-694-6168 x406,false
85,2021-04-30T19:59:03.540Z,Dr. Laurie Swaniawski,https://s3.amazonaws.com/uifaces/faces/twitter/mr_shiznit/128.jpg,North Ervinhaven,Israel,39379,13034 Jones Ville,Irwin.Casper@hotmail.com,087.898.5008 x899,true
86,2021-04-30T15:36:22.821Z,Ms. Brigitte Bruen,https://s3.amazonaws.com/uifaces/faces/twitter/rangafangs/128.jpg,Stantonbury,Grenada,36782,3867 Adams Views,Shayne.Grimes87@yahoo.com,1-437-207-6571 x9719,true
87,2021-04-30T12:25:50.704Z,Dr. Marlen Stark,https://s3.amazonaws.com/uifaces/faces/twitter/jcubic/128.jpg,East Tyree,Somalia,00655-7203,9533 Gus Light,Karson.Hauck50@hotmail.com,(074) 014-1770 x109,false
88,2021-05-01T05:25:34.591Z,Rosendo Hermann,https://s3.amazonaws.com/uifaces/faces/twitter/thekevinjones/128.jpg,Jonatanshire,Belgium,22071-5747,58981 O'Reilly Square,Kane_Brown27@yahoo.com,450-536-0887 x798,true
89,2021-04-30T13:48:40.715Z,Felton Cummings,https://s3.amazonaws.com/uifaces/faces/twitter/alevizio/128.jpg,Collierstad,Peru,65186,558 O'Keefe Plains,Kirsten_Kshlerin82@yahoo.com,1-392-360-2902 x8553,false
90,2021-04-30T14:51:38.091Z,Gunnar Kertzmann,https://s3.amazonaws.com/uifaces/faces/twitter/isaacfifth/128.jpg,Marielaview,Bosnia and Herzegovina,24210,2082 Lebsack Meadows,Edythe13@hotmail.com,395.892.5969,true
91,2021-04-30T21:03:58.410Z,Elza Haley I,https://s3.amazonaws.com/uifaces/faces/twitter/alexivanichkin/128.jpg,Robeltown,Ghana,05666-3895,8518 Weldon Ranch,Deonte_Berge43@yahoo.com,055-425-3373 x2599,true
92,2021-05-01T02:34:31.496Z,Jovanny Osinski,https://s3.amazonaws.com/uifaces/faces/twitter/xilantra/128.jpg,Reillymouth,New Zealand,16066,7864 Kunze Corners,Wendell.Crist34@gmail.com,1-993-223-0022 x351,true
93,2021-04-30T13:12:43.290Z,Miss Dana Muller,https://s3.amazonaws.com/uifaces/faces/twitter/ovall/128.jpg,Linwoodmouth,Egypt,45818,85398 Alek Motorway,Matt_Gibson31@hotmail.com,121-220-8595,false
94,2021-04-30T23:57:46.871Z,Nicholaus Marvin,https://s3.amazonaws.com/uifaces/faces/twitter/al_li/128.jpg,Thielland,Hungary,87669,2668 Jayme Knoll,Colin31@yahoo.com,509.814.2302 x5395,true
95,2021-04-30T20:25:35.417Z,Lamar Hermann,https://s3.amazonaws.com/uifaces/faces/twitter/ganserene/128.jpg,Port Kathlyn,United Kingdom,29343,007 Kerluke Station,Alexzander_Pfeffer@yahoo.com,(136) 660-6325,true
96,2021-04-30T13:59:35.885Z,Adelle Thiel,https://s3.amazonaws.com/uifaces/faces/twitter/thatonetommy/128.jpg,Port Tito,Isle of Man,94003-6534,9888 Emile Knoll,Jasmin71@hotmail.com,(981) 120-5046,false
97,2021-04-30T13:34:20.638Z,Kira Ernser,https://s3.amazonaws.com/uifaces/faces/twitter/rawdiggie/128.jpg,Dedricbury,Samoa,98084,89871 Kamren Terrace,Zechariah95@gmail.com,898.208.1179 x6527,true
98,2021-05-01T08:18:24.385Z,Delpha Grant,https://s3.amazonaws.com/uifaces/faces/twitter/matbeedotcom/128.jpg,West Deontae,Hungary,12249,79331 Dedrick Mountains,Paula_Aufderhar81@gmail.com,324-150-1747 x824,false
99,2021-04-30T21:13:13.544Z,Will Hudson I,https://s3.amazonaws.com/uifaces/faces/twitter/exentrich/128.jpg,Lake Stephan,Bahrain,77062,01521 Lane Point,Peyton3@gmail.com,1-500-699-1809 x863,false
100,2021-05-01T05:12:02.406Z,Jordyn Gerlach,https://s3.amazonaws.com/uifaces/faces/twitter/eugeneeweb/128.jpg,Hodkiewiczshire,Bermuda,25811,80694 Lelah Port,Destiney47@gmail.com,1-880-572-9850,true
